{
  "type": "FeatureCollection",
  "features": [
    {
      "type": "Feature",
      "properties": {
        "norad_id": 31535,
        "name": "FENGYUN 1C DEB",
        "group": "fengyun-1c-debris",
        "lat": -3.6963578402409483,
        "lon": 10.577016691767257,
        "alt_km": 738.2955914050717,
        "timestamp": "2025-12-06T16:45:43.005038+00:00",
        "meta_object_name": "FENGYUN 1C DEB",
        "meta_object_id": "1999-025BYA",
        "meta_epoch": "2025-12-02T19:25:54.598080",
        "meta_mean_motion": 14.28271502,
        "meta_eccentricity": 0.00872856,
        "meta_inclination": 98.0356,
        "meta_ra_of_asc_node": 187.5187,
        "meta_arg_of_pericenter": 192.6029,
        "meta_mean_anomaly": 167.2972,
        "meta_ephemeris_type": 0,
        "meta_classification_type": "U",
        "meta_norad_cat_id": 31535,
        "meta_element_set_no": 999,
        "meta_rev_at_epoch": 71789,
        "meta_bstar": 0.0009225818,
        "meta_mean_motion_dot": 2.358e-05,
        "meta_mean_motion_ddot": 0,
        "tle_line1": "1 31535U 99025BYA 25336.80965970  .00002358  00000+0  92258-3 0  9991",
        "tle_line2": "2 31535  98.0356 187.5187 0087285 192.6029 167.2972 14.28271502717894"
      },
      "geometry": {
        "type": "Point",
        "coordinates": [
          10.577016691767257,
          -3.6963578402409483
        ]
      }
    },
    {
      "type": "Feature",
      "properties": {
        "norad_id": 31536,
        "name": "FENGYUN 1C DEB",
        "group": "fengyun-1c-debris",
        "lat": -8.784435166754843,
        "lon": 66.87529596548144,
        "alt_km": 526.2575927739754,
        "timestamp": "2025-12-06T16:45:43.005048+00:00",
        "meta_object_name": "FENGYUN 1C DEB",
        "meta_object_id": "1999-025BYB",
        "meta_epoch": "2025-12-05T11:50:00.103200",
        "meta_mean_motion": 14.54180681,
        "meta_eccentricity": 0.02943903,
        "meta_inclination": 98.2367,
        "meta_ra_of_asc_node": 246.9697,
        "meta_arg_of_pericenter": 167.1341,
        "meta_mean_anomaly": 193.7582,
        "meta_ephemeris_type": 0,
        "meta_classification_type": "U",
        "meta_norad_cat_id": 31536,
        "meta_element_set_no": 999,
        "meta_rev_at_epoch": 96152,
        "meta_bstar": 0.0016445159,
        "meta_mean_motion_dot": 0.00012423,
        "meta_mean_motion_ddot": 0,
        "tle_line1": "1 31536U 99025BYB 25339.49305675  .00012423  00000+0  16445-2 0  9997",
        "tle_line2": "2 31536  98.2367 246.9697 0294390 167.1341 193.7582 14.54180681961524"
      },
      "geometry": {
        "type": "Point",
        "coordinates": [
          66.87529596548144,
          -8.784435166754843
        ]
      }
    },
    {
      "type": "Feature",
      "properties": {
        "norad_id": 31537,
        "name": "FENGYUN 1C DEB",
        "group": "fengyun-1c-debris",
        "lat": -32.555486503960445,
        "lon": -52.472826331190205,
        "alt_km": 982.6209490754418,
        "timestamp": "2025-12-06T16:45:43.005058+00:00",
        "meta_object_name": "FENGYUN 1C DEB",
        "meta_object_id": "1999-025BYC",
        "meta_epoch": "2025-12-03T16:43:33.231360",
        "meta_mean_motion": 14.20110126,
        "meta_eccentricity": 0.03493254,
        "meta_inclination": 99.2929,
        "meta_ra_of_asc_node": 130.3693,
        "meta_arg_of_pericenter": 350.1481,
        "meta_mean_anomaly": 9.2962,
        "meta_ephemeris_type": 0,
        "meta_classification_type": "U",
        "meta_norad_cat_id": 31537,
        "meta_element_set_no": 999,
        "meta_rev_at_epoch": 93153,
        "meta_bstar": 0.0024793535,
        "meta_mean_motion_dot": 9.745e-05,
        "meta_mean_motion_ddot": 0,
        "tle_line1": "1 31537U 99025BYC 25337.69691240  .00009745  00000+0  24794-2 0  9993",
        "tle_line2": "2 31537  99.2929 130.3693 0349325 350.1481   9.2962 14.20110126931531"
      },
      "geometry": {
        "type": "Point",
        "coordinates": [
          -52.472826331190205,
          -32.555486503960445
        ]
      }
    },
    {
      "type": "Feature",
      "properties": {
        "norad_id": 31538,
        "name": "FENGYUN 1C DEB",
        "group": "fengyun-1c-debris",
        "lat": 29.377469480335716,
        "lon": 33.7254996492044,
        "alt_km": 582.5512448263044,
        "timestamp": "2025-12-06T16:45:43.005068+00:00",
        "meta_object_name": "FENGYUN 1C DEB",
        "meta_object_id": "1999-025BYD",
        "meta_epoch": "2025-11-18T21:37:36.814656",
        "meta_mean_motion": 14.96885168,
        "meta_eccentricity": 0.00235351,
        "meta_inclination": 98.2479,
        "meta_ra_of_asc_node": 190.2519,
        "meta_arg_of_pericenter": 356.6213,
        "meta_mean_anomaly": 3.4844,
        "meta_ephemeris_type": 0,
        "meta_classification_type": "U",
        "meta_norad_cat_id": 31538,
        "meta_element_set_no": 999,
        "meta_rev_at_epoch": 66646,
        "meta_bstar": 0.0047226763,
        "meta_mean_motion_dot": 0.00054817,
        "meta_mean_motion_ddot": 0,
        "tle_line1": "1 31538U 99025BYD 25322.90112054  .00054817  00000+0  47227-2 0  9999",
        "tle_line2": "2 31538  98.2479 190.2519 0023535 356.6213   3.4844 14.96885168666469"
      },
      "geometry": {
        "type": "Point",
        "coordinates": [
          33.7254996492044,
          29.377469480335716
        ]
      }
    },
    {
      "type": "Feature",
      "properties": {
        "norad_id": 31540,
        "name": "FENGYUN 1C DEB",
        "group": "fengyun-1c-debris",
        "lat": -55.1050198666447,
        "lon": 152.72634836316055,
        "alt_km": 562.680693323945,
        "timestamp": "2025-12-06T16:45:43.005078+00:00",
        "meta_object_name": "FENGYUN 1C DEB",
        "meta_object_id": "1999-025BYF",
        "meta_epoch": "2025-11-30T16:47:12.586272",
        "meta_mean_motion": 14.65204922,
        "meta_eccentricity": 0.01774904,
        "meta_inclination": 99.0563,
        "meta_ra_of_asc_node": 132.9014,
        "meta_arg_of_pericenter": 338.1522,
        "meta_mean_anomaly": 21.2175,
        "meta_ephemeris_type": 0,
        "meta_classification_type": "U",
        "meta_norad_cat_id": 31540,
        "meta_element_set_no": 999,
        "meta_rev_at_epoch": 98125,
        "meta_bstar": 0.00061965123,
        "meta_mean_motion_dot": 4.14e-05,
        "meta_mean_motion_ddot": 0,
        "tle_line1": "1 31540U 99025BYF 25334.69945123  .00004140  00000+0  61965-3 0  9992",
        "tle_line2": "2 31540  99.0563 132.9014 0177490 338.1522  21.2175 14.65204922981257"
      },
      "geometry": {
        "type": "Point",
        "coordinates": [
          152.72634836316055,
          -55.1050198666447
        ]
      }
    },
    {
      "type": "Feature",
      "properties": {
        "norad_id": 31541,
        "name": "FENGYUN 1C DEB",
        "group": "fengyun-1c-debris",
        "lat": 26.568167264481406,
        "lon": -52.95403338109112,
        "alt_km": 679.2181498978262,
        "timestamp": "2025-12-06T16:45:43.005090+00:00",
        "meta_object_name": "FENGYUN 1C DEB",
        "meta_object_id": "1999-025BYG",
        "meta_epoch": "2025-12-05T15:31:59.363904",
        "meta_mean_motion": 14.68642143,
        "meta_eccentricity": 0.00787321,
        "meta_inclination": 98.9799,
        "meta_ra_of_asc_node": 121.357,
        "meta_arg_of_pericenter": 262.2463,
        "meta_mean_anomaly": 96.9795,
        "meta_ephemeris_type": 0,
        "meta_classification_type": "U",
        "meta_norad_cat_id": 31541,
        "meta_element_set_no": 999,
        "meta_rev_at_epoch": 98319,
        "meta_bstar": 0.0022980709,
        "meta_mean_motion_dot": 0.00013971,
        "meta_mean_motion_ddot": 0,
        "tle_line1": "1 31541U 99025BYG 25339.64721486  .00013971  00000+0  22981-2 0  9993",
        "tle_line2": "2 31541  98.9799 121.3570 0078732 262.2463  96.9795 14.68642143983192"
      },
      "geometry": {
        "type": "Point",
        "coordinates": [
          -52.95403338109112,
          26.568167264481406
        ]
      }
    },
    {
      "type": "Feature",
      "properties": {
        "norad_id": 31542,
        "name": "FENGYUN 1C DEB",
        "group": "fengyun-1c-debris",
        "lat": -52.11791599955839,
        "lon": 46.15071203509872,
        "alt_km": 818.6945514238951,
        "timestamp": "2025-12-06T16:45:43.005102+00:00",
        "meta_object_name": "FENGYUN 1C DEB",
        "meta_object_id": "1999-025BYH",
        "meta_epoch": "2025-12-05T20:45:25.858368",
        "meta_mean_motion": 14.2273505,
        "meta_eccentricity": 0.00471237,
        "meta_inclination": 98.7313,
        "meta_ra_of_asc_node": 33.9318,
        "meta_arg_of_pericenter": 226.5367,
        "meta_mean_anomaly": 133.1888,
        "meta_ephemeris_type": 0,
        "meta_classification_type": "U",
        "meta_norad_cat_id": 31542,
        "meta_element_set_no": 999,
        "meta_rev_at_epoch": 95842,
        "meta_bstar": 0.0023172527,
        "meta_mean_motion_dot": 5.211e-05,
        "meta_mean_motion_ddot": 0,
        "tle_line1": "1 31542U 99025BYH 25339.86488262  .00005211  00000+0  23173-2 0  9992",
        "tle_line2": "2 31542  98.7313  33.9318 0047123 226.5367 133.1888 14.22735050958422"
      },
      "geometry": {
        "type": "Point",
        "coordinates": [
          46.15071203509872,
          -52.11791599955839
        ]
      }
    }
  ]
}